NORAD_CAT_ID,OBJECT_NAME,OBJECT_TYPE,EPOCH,MEAN_MOTION,ECCENTRICITY,INCLINATION,RA_OF_ASC_NODE,ARG_OF_PERICENTER,MEAN_ANOMALY,BSTAR,MEAN_MOTION_DOT,MEAN_MOTION_DDOT,TLE_LINE0,TLE_LINE1,TLE_LINE2,SEMIMAJOR_AXIS,PERIOD,APOGEE,PERIGEE,DECAYED
53596.0,STARLINK-4668,PAYLOAD,2023-01-01 03:57:37,15.08869118,0.0002813999999999,53.2177,67.2843,68.0555,292.0736,0.00092575,0.00014488,0.0,0 STARLINK-4668,1 53596U 22104J   23001.16501791  .00014488  00000-0  92575-3 0  9999,2 53596  53.2177  67.2843 0002814  68.0555 292.0736 15.08869118 19274,6917.791,95.436,541.6030000000002,537.71,0.0
53596.0,STARLINK-4668,PAYLOAD,2023-01-01 13:29:56,15.08818692,0.0001474,53.2176,65.5002,52.0712,308.0413,0.00021142,3.076e-05,0.0,0 STARLINK-4668,1 53596U 22104J   23001.56246437  .00003076  00000-0  21142-3 0  9999,2 53596  53.2176  65.5002 0001474  52.0712 308.0413 15.08818692 19338,6917.946,95.439,540.83,538.7909999999998,0.0
53596.0,STARLINK-4668,PAYLOAD,2023-01-01 21:26:53,15.08816627,0.000154,53.2179,64.0137,55.2761,304.8376,0.0011235,0.00017626,0.0,0 STARLINK-4668,1 53596U 22104J   23001.89367060  .00017626  00000-0  11235-2 0  9998,2 53596  53.2179  64.0137 0001540  55.2761 304.8376 15.08816627 20078,6917.9519999999975,95.439,540.882,538.751,0.0
53596.0,STARLINK-4668,PAYLOAD,2023-01-02 10:09:58,15.08843782,0.0001601,53.2181,61.6348,56.2976,303.8168,0.0014493,0.00022855,0.0,0 STARLINK-4668,1 53596U 22104J   23002.42359336  .00022855  00000-0  14493-2 0  9994,2 53596  53.2181  61.6348 0001601  56.2976 303.8168 15.08843782 19466,6917.869000000002,95.437,540.841,538.626,0.0
53596.0,STARLINK-4668,PAYLOAD,2023-01-02 21:17:40,15.0885237,0.0001653,53.2178,59.5537,56.1646,303.9504,0.0009486,0.00014846,0.0,0 STARLINK-4668,1 53596U 22104J   23002.88727190  .00014846  00000-0  94860-3 0  9999,2 53596  53.2178  59.5537 0001653  56.1646 303.9504 15.08852370 20222,6917.843000000003,95.437,540.851,538.564,0.0
53596.0,STARLINK-4668,PAYLOAD,2023-01-03 03:39:12,15.08852372,0.0001701,53.2178,58.3645,58.5019,301.6139,0.00071153,0.00011058,0.0,0 STARLINK-4668,1 53596U 22104J   23003.15223125  .00011058  00000-0  71153-3 0  9991,2 53596  53.2178  58.3645 0001701  58.5019 301.6139 15.08852372 19570,6917.843000000003,95.437,540.884,538.531,0.0
53596.0,STARLINK-4668,PAYLOAD,2023-01-03 10:00:45,15.08838216,0.0001167999999999,53.2205,57.1749,31.9981,328.1082,0.00017033,2.424e-05,0.0,0 STARLINK-4668,1 53596U 22104J   23003.41719175  .00002424  00000-0  17033-3 0  9999,2 53596  53.2205  57.1749 0001168  31.9981 328.1082 15.08838216 19610,6917.886,95.438,540.559,538.943,0.0
53596.0,STARLINK-4668,PAYLOAD,2023-01-04 09:51:32,15.08853249,0.0001557,53.2184,52.7146,48.6935,311.4191,0.00072384,0.00011255,0.0,0 STARLINK-4668,1 53596U 22104J   23004.41079142  .00011255  00000-0  72384-3 0  9995,2 53596  53.2184  52.7146 0001557  48.6935 311.4191 15.08853249 20457,6917.84,95.437,540.7819999999998,538.628,0.0
53596.0,STARLINK-4668,PAYLOAD,2023-01-05 03:20:47,15.0883025,0.0001391,53.2184,49.4436,20.4804,339.6244,-3.7161e-05,-8.79e-06,0.0,0 STARLINK-4668,1 53596U 22104J   23005.13943812 -.00000879  00000-0 -37161-4 0  9996,2 53596  53.2184  49.4436 0001391  20.4804 339.6244 15.08830250 19873,6917.91,95.438,540.737,538.813,0.0
53596.0,STARLINK-4668,PAYLOAD,2023-01-05 12:53:06,15.08827246,0.0001595,53.2183,47.6581,54.7189,305.3952,-6.0313e-06,-3.84e-06,0.0,0 STARLINK-4668,1 53596U 22104J   23005.53688292 -.00000384  00000-0 -60313-5 0  9995,2 53596  53.2183  47.6581 0001595  54.7189 305.3952 15.08827246 20627,6917.919,95.438,540.888,538.681,0.0
53596.0,STARLINK-4668,PAYLOAD,2023-01-06 09:33:07,15.08856461,0.0001673,53.2167,43.7935,63.91,296.2065,0.0012377,0.00019474,0.0,0 STARLINK-4668,1 53596U 22104J   23006.39800387  .00019474  00000-0  12377-2 0  9993,2 53596  53.2167  43.7935 0001673  63.9100 296.2065 15.08856461 20063,6917.83,95.437,540.852,538.538,0.0
53596.0,STARLINK-4668,PAYLOAD,2023-01-07 03:02:22,15.0883807,9.4e-05,53.2149,40.5231,0.4174,359.6818,0.000254,3.757e-05,0.0,0 STARLINK-4668,1 53596U 22104J   23007.12664594  .00003757  00000-0  25400-3 0  9992,2 53596  53.2149  40.5231 0000940   0.4174 359.6818 15.08838070 20178,6917.886,95.438,540.4019999999998,539.101,0.0
53596.0,STARLINK-4668,PAYLOAD,2023-01-07 18:56:13,15.08841122,0.0001751,53.2153,37.5486,72.6084,287.5099,0.00027324,4.063e-05,0.0,0 STARLINK-4668,1 53596U 22104J   23007.78905001  .00004063  00000-0  27324-3 0  9993,2 53596  53.2153  37.5486 0001751  72.6084 287.5099 15.08841122 20962,6917.877,95.437,540.953,538.531,0.0
53596.0,STARLINK-4668,PAYLOAD,2023-01-08 02:53:09,15.08845789,0.0001716,53.2159,36.0619,75.1908,284.9274,0.00042318,6.454e-05,0.0,0 STARLINK-4668,1 53596U 22104J   23008.12024907  .00006454  00000-0  42318-3 0  9995,2 53596  53.2159  36.0619 0001716  75.1908 284.9274 15.08845789 21010,6917.863,95.437,540.915,538.5409999999998,0.0
53596.0,STARLINK-4668,PAYLOAD,2023-01-08 18:47:00,15.08853776,0.00015,53.2168,33.0887,80.8764,279.2398,0.00048203,7.395e-05,0.0,0 STARLINK-4668,1 53596U 22104J   23008.78264455  .00007395  00000-0  48203-3 0  9995,2 53596  53.2168  33.0887 0001500  80.8764 279.2398 15.08853776 20421,6917.838000000002,95.437,540.741,538.6659999999998,0.0
53596.0,STARLINK-4668,PAYLOAD,2023-01-09 02:43:56,15.08848577,0.0001932,53.2154,31.6008,79.6776,280.4434,0.00025715,3.808e-05,0.0,0 STARLINK-4668,1 53596U 22104J   23009.11384584  .00003808  00000-0  25715-3 0  9997,2 53596  53.2154  31.6008 0001932  79.6776 280.4434 15.08848577 20476,6917.854,95.437,541.056,538.383,0.0
53596.0,STARLINK-4668,PAYLOAD,2023-01-09 07:30:05,15.08851494,0.0001981,53.2149,30.7088,79.7606,280.3609,0.00029881,4.472e-05,0.0,0 STARLINK-4668,1 53596U 22104J   23009.31256426  .00004472  00000-0  29881-3 0  9998,2 53596  53.2149  30.7088 0001981  79.7606 280.3609 15.08851494 21190,6917.845,95.437,541.081,538.34,0.0
53596.0,STARLINK-4668,PAYLOAD,2023-01-10 07:20:52,15.0884341,0.0001361999999999,53.2169,26.2489,87.2409,272.8739,8.8534e-05,1.122e-05,0.0,0 STARLINK-4668,1 53596U 22104J   23010.30616545  .00001122  00000-0  88534-4 0  9991,2 53596  53.2169  26.2489 0001362  87.2409 272.8739 15.08843410 20654,6917.87,95.437,540.677,538.793,0.0
53596.0,STARLINK-4668,PAYLOAD,2023-01-10 18:28:34,15.08842606,0.0001424,53.2152,24.1669,89.2493,270.8663,0.00015839,2.234e-05,0.0,0 STARLINK-4668,1 53596U 22104J   23010.76984534  .00002234  00000-0  15839-3 0  9999,2 53596  53.2152  24.1669 0001424  89.2493 270.8663 15.08842606 21412,6917.871999999999,95.437,540.7230000000002,538.752,0.0
53596.0,STARLINK-4668,PAYLOAD,2023-01-11 07:11:39,15.08847063,0.0001682,53.2163,21.789,93.5195,266.599,0.00014385,2.002e-05,0.0,0 STARLINK-4668,1 53596U 22104J   23011.29976386  .00002002  00000-0  14385-3 0  9992,2 53596  53.2163  21.7890 0001682  93.5195 266.5990 15.08847063 21491,6917.859,95.437,540.887,538.56,0.0
53596.0,STARLINK-4668,PAYLOAD,2023-01-11 19:54:45,15.08838635,0.0001386999999999,53.2163,19.4087,97.44,262.6749,9.7078e-05,1.257e-05,0.0,0 STARLINK-4668,1 53596U 22104J   23011.82968789  .00001257  00000-0  97078-4 0  9991,2 53596  53.2163  19.4087 0001387  97.4400 262.6749 15.08838635 21570,6917.885,95.438,540.7090000000002,538.79,0.0
53596.0,STARLINK-4668,PAYLOAD,2023-01-12 02:16:17,15.08834372,0.0001408,53.2163,18.2195,98.3708,261.7444,1.8932e-05,1.3e-07,0.0,0 STARLINK-4668,1 53596U 22104J   23012.09465065  .00000013  00000-0  18932-4 0  9991,2 53596  53.2163  18.2195 0001408  98.3708 261.7444 15.08834372 20926,6917.898,95.438,540.737,538.789,0.0
53596.0,STARLINK-4668,PAYLOAD,2023-01-12 19:45:32,15.08834688,0.000137,53.2164,14.9494,89.3139,270.801,0.00010842,1.438e-05,0.0,0 STARLINK-4668,1 53596U 22104J   23012.82329216  .00001438  00000-0  10842-3 0  9992,2 53596  53.2164  14.9494 0001370  89.3139 270.8010 15.08834688 21727,6917.897,95.438,540.7090000000002,538.814,0.0
53596.0,STARLINK-4668,PAYLOAD,2023-01-13 06:53:13,15.08845286,0.000122,53.2169,12.8684,94.6338,265.4794,0.00019233,2.775e-05,0.0,0 STARLINK-4668,1 53596U 22104J   23013.28696694  .00002775  00000-0  19233-3 0  9998,2 53596  53.2169  12.8684 0001220  94.6338 265.4794 15.08845286 21101,6917.8640000000005,95.437,540.573,538.885,0.0
53596.0,STARLINK-4668,PAYLOAD,2023-01-13 16:25:32,15.08842331,0.0001088999999999,53.2152,11.0827,86.8256,273.2861,8.3627e-05,1.043e-05,0.0,0 STARLINK-4668,1 53596U 22104J   23013.68440789  .00001043  00000-0  83627-4 0  9990,2 53596  53.2152  11.0827 0001089  86.8256 273.2861 15.08842331 21850,6917.8730000000005,95.437,540.492,538.985,0.0
53596.0,STARLINK-4668,PAYLOAD,2023-01-14 08:19:23,15.08851274,0.000131,53.2163,8.1109,103.3485,256.7653,0.00025128,3.715e-05,0.0,0 STARLINK-4668,1 53596U 22104J   23014.34680512  .00003715  00000-0  25128-3 0  9993,2 53596  53.2163   8.1109 0001310 103.3485 256.7653 15.08851274 21264,6917.846,95.437,540.617,538.805,0.0
53596.0,STARLINK-4668,PAYLOAD,2023-01-14 22:37:55,15.08785957,0.0001455,53.2176,5.4338,97.0698,263.0459,-0.00060959,-9.962e-05,0.0,0 STARLINK-4668,1 53596U 22104J   23014.94300362 -.00009962  00000-0 -60959-3 0  9994,2 53596  53.2176   5.4338 0001455  97.0698 263.0459 15.08785957 21356,6918.045999999999,95.441,540.9169999999999,538.904,0.0
53596.0,STARLINK-4668,PAYLOAD,2023-01-15 09:45:37,15.08798904,0.0001125999999999,53.2157,3.3478,105.5017,254.61,-0.00038089,-6.338e-05,0.0,0 STARLINK-4668,1 53596U 22104J   23015.40668452 -.00006338  00000-0 -38089-3 0  9996,2 53596  53.2157   3.3478 0001126 105.5017 254.6100 15.08798904 21425,6918.005999999999,95.44,540.65,539.092,0.0
53596.0,STARLINK-4668,PAYLOAD,2023-01-15 16:07:09,15.08822628,6.850000000000001e-05,53.2167,2.1646,111.4855,248.6211,0.00015387,2.161e-05,0.0,0 STARLINK-4668,1 53596U 22104J   23015.67163930  .00002161  00000-0  15387-3 0  9990,2 53596  53.2167   2.1646 0000685 111.4855 248.6211 15.08822628 21466,6917.933000000001,95.439,540.2719999999999,539.325,0.0
